MESON-1                 
1 59131U 24043AK  26068.90019075  .00008544  00000+0  29748-3 0  9998
2 59131  97.5469 205.2839 0009545 227.1432 132.9007 15.29893494111890
STARLINK-31910          
1 59664U 24084L   26068.93773448  .00022118  00000+0  81409-3 0  9993
2 59664  43.0019  40.1735 0001147 235.7114 124.3629 15.27449230104419
